NORAD_CAT_ID,OBJECT_NAME,OBJECT_TYPE,EPOCH,MEAN_MOTION,ECCENTRICITY,INCLINATION,RA_OF_ASC_NODE,ARG_OF_PERICENTER,MEAN_ANOMALY,BSTAR,MEAN_MOTION_DOT,MEAN_MOTION_DDOT,TLE_LINE0,TLE_LINE1,TLE_LINE2,SEMIMAJOR_AXIS,PERIOD,APOGEE,PERIGEE,DECAYED
54206.0,STARLINK-5264,PAYLOAD,2024-03-25 20:06:47,15.08841212,0.0001196,53.2166,283.5608,91.74,268.3729,7.0702e-05,8.38e-06,0.0,0 STARLINK-5264,1 54206U 22141BB  24085.83804851  .00000838  00000-0  70702-4 0  9992,2 54206  53.2166 283.5608 0001196  91.7400 268.3729 15.08841212 78950,6917.877,95.437,540.569,538.914,0.0
54206.0,STARLINK-5264,PAYLOAD,2024-03-26 13:36:03,15.08841038,0.0001844,53.2165,280.2902,78.5137,281.6062,-0.00021421,-3.696e-05,0.0,0 STARLINK-5264,1 54206U 22141BB  24086.56670270 -.00003696  00000-0 -21421-3 0  9999,2 54206  53.2165 280.2902 0001844  78.5137 281.6062 15.08841038 79067,6917.877,95.437,541.018,538.467,0.0
54206.0,STARLINK-5264,PAYLOAD,2024-03-26 19:57:35,15.08837083,0.0001277,53.2175,279.1029,84.7677,275.3461,-0.0002455,-4.193e-05,0.0,0 STARLINK-5264,1 54206U 22141BB  24086.83166542 -.00004193  00000-0 -24550-3 0  9990,2 54206  53.2175 279.1029 0001277  84.7677 275.3461 15.08837083 78879,6917.889,95.438,540.638,538.871,0.0
54206.0,STARLINK-5264,PAYLOAD,2024-03-27 05:29:54,15.08841758,0.0001387,53.2183,277.3187,88.5405,271.5746,-0.00020665,-3.575e-05,0.0,0 STARLINK-5264,1 54206U 22141BB  24087.22910187 -.00003575  00000-0 -20665-3 0  9992,2 54206  53.2183 277.3187 0001387  88.5405 271.5746 15.08841758 78931,6917.875,95.437,540.7,538.781,0.0
54206.0,STARLINK-5264,PAYLOAD,2024-03-27 19:48:22,15.08844762,0.0001313,53.2172,274.642,86.8688,273.2455,0.00011801,1.591e-05,0.0,0 STARLINK-5264,1 54206U 22141BB  24087.82525673  .00001591  00000-0  11801-3 0  9996,2 54206  53.2172 274.6420 0001313  86.8688 273.2455 15.08844762 79252,6917.866,95.437,540.639,538.823,0.0
54206.0,STARLINK-5264,PAYLOAD,2024-03-27 21:23:45,15.08847049,0.000134,53.2175,274.3449,89.335,270.7795,0.0001467,2.048e-05,0.0,0 STARLINK-5264,1 54206U 22141BB  24087.89149506  .00002048  00000-0  14670-3 0  9995,2 54206  53.2175 274.3449 0001340  89.3350 270.7795 15.08847049 79033,6917.859,95.437,540.651,538.797,0.0
54206.0,STARLINK-5264,PAYLOAD,2024-03-28 11:42:14,15.08829486,0.0001525,53.2167,271.6678,84.407,275.7097,0.00024065,3.543e-05,0.0,0 STARLINK-5264,1 54206U 22141BB  24088.48766777  .00003543  00000-0  24065-3 0  9996,2 54206  53.2167 271.6678 0001525  84.4070 275.7097 15.08829486 79358,6917.913,95.438,540.833,538.723,0.0
54206.0,STARLINK-5264,PAYLOAD,2024-03-29 11:33:00,15.08852205,0.0002623,53.2143,267.2086,87.6122,272.517,0.00013678,1.89e-05,0.0,0 STARLINK-5264,1 54206U 22141BB  24089.48125554  .00001890  00000-0  13678-3 0  9990,2 54206  53.2143 267.2086 0002623  87.6122 272.5170 15.08852205 79508,6917.843,95.437,541.523,537.894,0.0
54206.0,STARLINK-5264,PAYLOAD,2024-03-30 05:02:15,15.08839087,0.0001762,53.2156,263.9348,103.2686,256.8503,-8.2793e-05,-1.606e-05,0.0,0 STARLINK-5264,1 54206U 22141BB  24090.20990550 -.00001606  00000-0 -82793-4 0  9990,2 54206  53.2156 263.9348 0001762 103.2686 256.8503 15.08839087 79619,6917.883,95.438,540.967,538.529,0.0
54206.0,STARLINK-5264,PAYLOAD,2024-03-30 20:56:03,15.08942174,0.0002524,53.2133,260.9602,121.8387,238.2852,-0.0016795,-0.00026994,0.0,0 STARLINK-5264,1 54206U 22141BB  24090.87225886 -.00026994  00000-0 -16795-2 0  9990,2 54206  53.2133 260.9602 0002524 121.8387 238.2852 15.08942174 79719,6917.568,95.431,541.179,537.687,0.0
54206.0,STARLINK-5264,PAYLOAD,2024-03-31 04:53:02,15.08833469,0.0001919,53.2151,259.4744,106.1579,253.9624,0.00018241,2.616e-05,0.0,0 STARLINK-5264,1 54206U 22141BB  24091.20350304  .00002616  00000-0  18241-3 0  9994,2 54206  53.2151 259.4744 0001919 106.1579 253.9624 15.08833469 79767,6917.9,95.438,541.093,538.438,0.0
54206.0,STARLINK-5264,PAYLOAD,2024-03-31 14:25:20,15.08844373,0.000176,53.2129,257.6889,109.6325,250.4858,0.00025785,3.818e-05,0.0,0 STARLINK-5264,1 54206U 22141BB  24091.60093475  .00003818  00000-0  25785-3 0  9997,2 54206  53.2129 257.6889 0001760 109.6325 250.4858 15.08844373 79591,6917.867,95.437,540.95,538.514,0.0
54206.0,STARLINK-5264,PAYLOAD,2024-03-31 17:36:07,15.08848714,0.0001726,53.215,257.0963,99.6624,260.4563,0.00045627,6.983e-05,0.0,0 STARLINK-5264,1 54206U 22141BB  24091.73342033  .00006983  00000-0  45627-3 0  9991,2 54206  53.2150 257.0963 0001726  99.6624 260.4563 15.08848714 79849,6917.854,95.437,540.913,538.525,0.0
54206.0,STARLINK-5264,PAYLOAD,2024-04-01 11:05:22,15.08838192,0.0001527,53.215,253.8257,90.8975,269.2192,0.00019015,2.739e-05,0.0,0 STARLINK-5264,1 54206U 22141BB  24092.46206762  .00002739  00000-0  19015-3 0  9997,2 54206  53.2150 253.8257 0001527  90.8975 269.2192 15.08838192 79956,6917.886,95.438,540.807,538.695,0.0
54206.0,STARLINK-5264,PAYLOAD,2024-04-01 14:16:08,15.088377,0.0001546,53.2163,253.2305,88.1401,271.9768,0.00011199,1.495e-05,0.0,0 STARLINK-5264,1 54206U 22141BB  24092.59454772  .00001495  00000-0  11199-3 0  9990,2 54206  53.2163 253.2305 0001546  88.1401 271.9768 15.08837700 79743,6917.887,95.438,540.822,538.683,0.0
54206.0,STARLINK-5264,PAYLOAD,2024-04-02 10:56:09,15.08841916,0.0001437,53.216,249.3644,80.8419,279.2736,0.00016311,2.309e-05,0.0,0 STARLINK-5264,1 54206U 22141BB  24093.45566715  .00002309  00000-0  16311-3 0  9993,2 54206  53.2160 249.3644 0001437  80.8419 279.2736 15.08841916 79873,6917.875,95.437,540.734,538.745,0.0
54206.0,STARLINK-5264,PAYLOAD,2024-04-02 20:28:28,15.0885261,0.0001498,53.2166,247.5809,79.8742,280.2419,0.00040881,6.226e-05,0.0,0 STARLINK-5264,1 54206U 22141BB  24093.85310292  .00006226  00000-0  40881-3 0  9995,2 54206  53.2166 247.5809 0001498  79.8742 280.2419 15.08852610 80163,6917.842,95.437,540.743,538.671,0.0
54206.0,STARLINK-5264,PAYLOAD,2024-04-03 20:19:15,15.08849288,0.0001428,53.2161,243.1198,80.8843,279.2311,0.00030123,4.511e-05,0.0,0 STARLINK-5264,1 54206U 22141BB  24094.84670341  .00004511  00000-0  30123-3 0  9992,2 54206  53.2161 243.1198 0001428  80.8843 279.2311 15.08849288 80311,6917.852,95.437,540.705,538.729,0.0
54206.0,STARLINK-5264,PAYLOAD,2024-04-04 02:40:47,15.08841393,0.0001354,53.2156,241.9308,84.2191,275.8955,0.00011894,1.606e-05,0.0,0 STARLINK-5264,1 54206U 22141BB  24095.11166534  .00001606  00000-0  11894-3 0  9993,2 54206  53.2156 241.9308 0001354  84.2191 275.8955 15.08841393 80355,6917.876,95.437,540.678,538.804,0.0
54206.0,STARLINK-5264,PAYLOAD,2024-04-04 13:48:29,15.08839859,0.0001436,53.216,239.8502,88.2445,271.8711,8.1595e-05,1.011e-05,0.0,0 STARLINK-5264,1 54206U 22141BB  24095.57534709  .00001011  00000-0  81595-4 0  9992,2 54206  53.2160 239.8502 0001436  88.2445 271.8711 15.08839859 80191,6917.881,95.438,540.739,538.752,0.0
54206.0,STARLINK-5264,PAYLOAD,2024-04-04 16:59:16,15.08841243,0.0001565,53.2159,239.253,80.406,279.7109,0.00014574,2.032e-05,0.0,0 STARLINK-5264,1 54206U 22141BB  24095.70782599  .00002032  00000-0  14574-3 0  9995,2 54206  53.2159 239.2530 0001565  80.4060 279.7109 15.08841243 80215,6917.877,95.437,540.824,538.659,0.0
54206.0,STARLINK-5264,PAYLOAD,2024-04-05 08:53:07,15.08847896,0.0001801,53.2152,236.2796,83.9599,276.1599,0.00033895,5.112e-05,0.0,0 STARLINK-5264,1 54206U 22141BB  24096.37022499  .00005112  00000-0  33895-3 0  9994,2 54206  53.2152 236.2796 0001801  83.9599 276.1599 15.08847896 80547,6917.856,95.437,540.967,538.475,0.0
54206.0,STARLINK-5264,PAYLOAD,2024-04-05 13:39:16,15.08850768,0.00016,53.2155,235.3874,83.6141,276.5033,0.0003843,5.835e-05,0.0,0 STARLINK-5264,1 54206U 22141BB  24096.56894343  .00005835  00000-0  38430-3 0  9992,2 54206  53.2155 235.3874 0001600  83.6141 276.5033 15.08850768 80341,6917.847,95.437,540.819,538.606,0.0
54206.0,STARLINK-5264,PAYLOAD,2024-04-05 16:50:02,15.08853706,0.0001463,53.2159,234.7932,81.6885,278.4273,0.00036629,5.548e-05,0.0,0 STARLINK-5264,1 54206U 22141BB  24096.70142142  .00005548  00000-0  36629-3 0  9990,2 54206  53.2159 234.7932 0001463  81.6885 278.4273 15.08853706 80367,6917.838,95.437,540.716,538.691,0.0
54206.0,STARLINK-5264,PAYLOAD,2024-04-06 02:22:21,15.08847166,0.0001393,53.2164,233.0086,89.6981,270.417,0.00019058,2.747e-05,0.0,0 STARLINK-5264,1 54206U 22141BB  24097.09886215  .00002747  00000-0  19058-3 0  9994,2 54206  53.2164 233.0086 0001393  89.6981 270.4170 15.08847166 80655,6917.858,95.437,540.687,538.76,0.0
54206.0,STARLINK-5264,PAYLOAD,2024-04-06 15:05:27,15.08837435,0.000153,53.2175,230.6323,87.5001,272.6166,-2.1732e-05,-6.34e-06,0.0,0 STARLINK-5264,1 54206U 22141BB  24097.62878611 -.00000634  00000-0 -21732-4 0  9992,2 54206  53.2175 230.6323 0001530  87.5001 272.6166 15.08837435 80508,6917.888,95.438,540.812,538.695,0.0
54206.0,STARLINK-5264,PAYLOAD,2024-04-07 08:34:42,15.08833594,0.0001495,53.2171,227.3613,85.9144,274.2019,-1.2093e-05,-4.8e-06,0.0,0 STARLINK-5264,1 54206U 22141BB  24098.35743151 -.00000480  00000-0 -12093-4 0  9992,2 54206  53.2171 227.3613 0001495  85.9144 274.2019 15.08833594 80618,6917.9,95.438,540.799,538.731,0.0
54206.0,STARLINK-5264,PAYLOAD,2024-04-07 14:56:14,15.08835237,0.0001439,53.216,226.17,88.9463,271.1694,7.4286e-06,-1.7e-06,0.0,0 STARLINK-5264,1 54206U 22141BB  24098.62239294 -.00000170  00000-0  74286-5 0  9998,2 54206  53.2160 226.1700 0001439  88.9463 271.1694 15.08835237 80650,6917.895,95.438,540.755,538.764,0.0
54206.0,STARLINK-5264,PAYLOAD,2024-04-08 08:25:29,15.08841134,0.0001555,53.2143,222.898,93.6141,266.5029,0.00024212,3.568e-05,0.0,0 STARLINK-5264,1 54206U 22141BB  24099.35103292  .00003568  00000-0  24212-3 0  9992,2 54206  53.2143 222.8980 0001555  93.6141 266.5029 15.08841134 80999,6917.877,95.437,540.818,538.666,0.0
54206.0,STARLINK-5264,PAYLOAD,2024-04-08 14:47:01,15.08850593,0.0001645,53.2121,221.7094,84.7371,275.3809,0.00017229,2.456e-05,0.0,0 STARLINK-5264,1 54206U 22141BB  24099.61598746  .00002456  00000-0  17229-3 0  9998,2 54206  53.2121 221.7094 0001645  84.7371 275.3809 15.08850593 80808,6917.848,95.437,540.851,538.575,0.0
